HIERARCHY
ROOT Hips
{
  OFFSET 0.0 0.0 0.0
  CHANNELS 6 Xposition Yposition Zposition Zrotation Xrotation Yrotation
  End Site
  {
    OFFSET 0.0 0.0 1.0
  }
}
MOTION
Frames: 24
Frame Time: 0.041667
0.00 0.00 0.00 0.00 0.00 0.00
0.01 0.00 0.02 0.30 0.20 -0.20
0.02 0.00 0.04 0.55 0.35 -0.35
0.01 0.00 0.03 0.35 0.20 -0.15
0.00 0.00 0.00 -0.10 -0.05 0.10
-0.01 0.00 -0.02 -0.35 -0.20 0.20
-0.02 0.00 -0.04 -0.55 -0.35 0.35
-0.01 0.00 -0.03 -0.30 -0.15 0.15
0.00 0.00 0.00 0.05 0.05 -0.05
0.01 0.00 0.02 0.35 0.20 -0.20
0.02 0.00 0.04 0.60 0.40 -0.35
0.01 0.00 0.03 0.30 0.15 -0.10
0.00 0.00 0.00 -0.05 -0.05 0.05
-0.01 0.00 -0.02 -0.30 -0.15 0.15
-0.02 0.00 -0.04 -0.60 -0.40 0.35
-0.01 0.00 -0.03 -0.35 -0.20 0.20
0.00 0.00 0.00 0.00 0.00 0.00
0.01 0.00 0.02 0.30 0.20 -0.20
0.02 0.00 0.04 0.55 0.35 -0.35
0.01 0.00 0.03 0.35 0.20 -0.15
0.00 0.00 0.00 -0.10 -0.05 0.10
-0.01 0.00 -0.02 -0.35 -0.20 0.20
-0.02 0.00 -0.04 -0.55 -0.35 0.35
-0.01 0.00 -0.03 -0.30 -0.15 0.15
